IRIDIUM 171             
1 43929U 19002H   24022.93850487  .00000337  00000+0  11326-3 0  9991
2 43929  86.3994 359.9823 0002121  91.4045 268.7394 14.34218619263364
IRIDIUM 170             
1 43930U 19002J   24022.92555233  .00001856  00000+0  29064-3 0  9998
2 43930  86.6112 359.8303 0002450  90.3699 269.7799 14.72230638270333
IRIDIUM 167             
1 43931U 19002K   24022.93216257  .00000010  00000+0 -33196-5 0  9995
2 43931  86.3983 359.7912 0001971  89.6553 270.4868 14.34216949263367
IRIDIUM 181             
1 56726U 23068S   24022.57186580  .00000664  00000+0  19031-3 0  9997
2 56726  86.8603  46.5461 0001622 103.1887 256.9495 14.43592706 35980
IRIDIUM 177             
1 56727U 23068T   24022.93533835  .00000990  00000+0  12687-3 0  9999
2 56727  86.1965  24.7793 0002462  94.0122 266.1380 14.80215254 36746
IRIDIUM 174             
1 56728U 23068U   24022.92994154  .00000995  00000+0  12758-3 0  9998
2 56728  86.1973  24.8739 0002430  92.3397 267.8103 14.80208738 36747
IRIDIUM 178             
1 56729U 23068V   24022.51887684  .00001031  00000+0  13230-3 0  9991
2 56729  86.5762  35.5781 0002453  95.5155 264.6347 14.80197784 36682
IRIDIUM 179             
1 56730U 23068W   24022.58102636  .00000963  00000+0  12343-3 0  9994
2 56730  86.6770  37.8384 0002184  92.6486 267.4985 14.80191013 36693
